{
    "links": {
        "self": "http://www.neowsapp.com/rest/v1/neo/3781310?api_key=iIulBulltgU6a56xZRHN4H3l9WmuAYTsLGpBGhQ2"
    },
    "id": "3781310",
    "neo_reference_id": "3781310",
    "name": "(2017 QP35)",
    "designation": "2017 QP35",
    "nasa_jpl_url": "http://ssd.jpl.nasa.gov/sbdb.cgi?sstr=3781310",
    "absolute_magnitude_h": 23.7,
    "estimated_diameter": {
        "kilometers": {
            "estimated_diameter_min": 0.0483676488,
            "estimated_diameter_max": 0.1081533507
        },
        "meters": {
            "estimated_diameter_min": 48.3676488219,
            "estimated_diameter_max": 108.1533506775
        },
        "miles": {
            "estimated_diameter_min": 0.0300542543,
            "estimated_diameter_max": 0.0672033557
        },
        "feet": {
            "estimated_diameter_min": 158.6865169607,
            "estimated_diameter_max": 354.8338390368
        }
    },
    "is_potentially_hazardous_asteroid": false,
    "close_approach_data": [
        {
            "close_approach_date": "2017-09-09",
            "close_approach_date_full": "2017-Sep-09 08:22",
            "epoch_date_close_approach": 1504945320000,
            "relative_velocity": {
                "kilometers_per_second": "17.4551934559",
                "kilometers_per_hour": "62838.6964411669",
                "miles_per_hour": "39045.5222414573"
            },
            "miss_distance": {
                "astronomical": "0.1013513046",
                "lunar": "39.4256574894",
                "kilometers": "15161939.289881202",
                "miles": "9421192.2082445076"
            },
            "orbiting_body": "Earth"
        }
    ],
    "orbital_data": {
        "orbit_id": "1",
        "orbit_determination_date": "2017-09-02 15:42:09",
        "first_observation_date": "2017-08-31",
        "last_observation_date": "2017-09-02",
        "data_arc_in_days": 2,
        "observations_used": 27,
        "orbit_uncertainty": "9",
        "minimum_orbit_intersection": ".100351",
        "jupiter_tisserand_invariant": "3.219",
        "epoch_osculation": "2457997.5",
        "eccentricity": ".5432769204353156",
        "semi_major_axis": "2.330115093791946",
        "inclination": "28.61612851505702",
        "ascending_node_longitude": "164.2784165117179",
        "orbital_period": "1299.165522139163",
        "perihelion_distance": "1.064217341376811",
        "perihelion_argument": "209.1343504246704",
        "aphelion_distance": "3.596012846207081",
        "perihelion_time": "2458029.256463499311",
        "mean_anomaly": "351.2002538052827",
        "mean_motion": ".2771009496982617",
        "equinox": "J2000",
        "orbit_class": {
            "orbit_class_type": "AMO",
            "orbit_class_description": "Near-Earth asteroid orbits similar to that of 1221 Amor",
            "orbit_class_range": "1.017 AU < q (perihelion) < 1.3 AU"
        }
    },
    "is_sentry_object": false
}